CCSDS_OMM_VERS = 2.0
CREATION_DATE  = 
ORIGINATOR     = 

OBJECT_NAME    = STARLINK-36626
OBJECT_ID      = 2026-018Q
CENTER_NAME    = EARTH
REF_FRAME      = TEME
TIME_SYSTEM    = UTC
MEAN_ELEMENT_THEORY = SGP/SGP4

EPOCH          = 2026-02-16T10:29:51.798048
MEAN_MOTION    = 15.80921397
ECCENTRICITY   = .0001912
INCLINATION    = 97.2844
RA_OF_ASC_NODE = 112.2155
ARG_OF_PERICENTER = 101.2742
MEAN_ANOMALY   = 258.8741

EPHEMERIS_TYPE = 0
CLASSIFICATION_TYPE = U
NORAD_CAT_ID   = 67603
ELEMENT_SET_NO = 999
REV_AT_EPOCH   = 396
BSTAR          = .14584E-2
MEAN_MOTION_DOT = .290105E-2
MEAN_MOTION_DDOT = 0

CCSDS_OMM_VERS = 2.0
CREATION_DATE  = 
ORIGINATOR     = 

OBJECT_NAME    = STARLINK-36605
OBJECT_ID      = 2026-018R
CENTER_NAME    = EARTH
REF_FRAME      = TEME
TIME_SYSTEM    = UTC
MEAN_ELEMENT_THEORY = SGP/SGP4

EPOCH          = 2026-02-16T12:00:01.999296
MEAN_MOTION    = 15.75189895
ECCENTRICITY   = .0001126
INCLINATION    = 97.2844
RA_OF_ASC_NODE = 112.2488
ARG_OF_PERICENTER = 85.4659
MEAN_ANOMALY   = 190.2267

EPHEMERIS_TYPE = 0
CLASSIFICATION_TYPE = U
NORAD_CAT_ID   = 67604
ELEMENT_SET_NO = 999
REV_AT_EPOCH   = 393
BSTAR          = .27064E-3
MEAN_MOTION_DOT = .40429E-3
MEAN_MOTION_DDOT = 0

CCSDS_OMM_VERS = 2.0
CREATION_DATE  = 
ORIGINATOR     = 

OBJECT_NAME    = STARLINK-36281
OBJECT_ID      = 2026-018S
CENTER_NAME    = EARTH
REF_FRAME      = TEME
TIME_SYSTEM    = UTC
MEAN_ELEMENT_THEORY = SGP/SGP4

EPOCH          = 2026-02-16T07:30:19.039968
MEAN_MOTION    = 15.80918501
ECCENTRICITY   = .0001641
INCLINATION    = 97.2841
RA_OF_ASC_NODE = 112.0784
ARG_OF_PERICENTER = 97.6938
MEAN_ANOMALY   = 262.4517

EPHEMERIS_TYPE = 0
CLASSIFICATION_TYPE = U
NORAD_CAT_ID   = 67605
ELEMENT_SET_NO = 999
REV_AT_EPOCH   = 394
BSTAR          = .17933E-2
MEAN_MOTION_DOT = .359589E-2
MEAN_MOTION_DDOT = 0

CCSDS_OMM_VERS = 2.0
CREATION_DATE  = 
ORIGINATOR     = 

OBJECT_NAME    = STARLINK-35843
OBJECT_ID      = 2026-018T
CENTER_NAME    = EARTH
REF_FRAME      = TEME
TIME_SYSTEM    = UTC
MEAN_ELEMENT_THEORY = SGP/SGP4

EPOCH          = 2026-02-16T12:00:01.999296
MEAN_MOTION    = 15.75163559
ECCENTRICITY   = .0001115
INCLINATION    = 97.2841
RA_OF_ASC_NODE = 112.2632
ARG_OF_PERICENTER = 73.7023
MEAN_ANOMALY   = 233.9946

EPHEMERIS_TYPE = 0
CLASSIFICATION_TYPE = U
NORAD_CAT_ID   = 67606
ELEMENT_SET_NO = 999
REV_AT_EPOCH   = 399
BSTAR          = .47085E-3
MEAN_MOTION_DOT = .70602E-3
MEAN_MOTION_DDOT = 0

CCSDS_OMM_VERS = 2.0
CREATION_DATE  = 
ORIGINATOR     = 

OBJECT_NAME    = STARLINK-36351
OBJECT_ID      = 2026-018U
CENTER_NAME    = EARTH
REF_FRAME      = TEME
TIME_SYSTEM    = UTC
MEAN_ELEMENT_THEORY = SGP/SGP4

EPOCH          = 2026-02-16T07:24:51.111360
MEAN_MOTION    = 15.80842440
ECCENTRICITY   = .0000292
INCLINATION    = 97.2844
RA_OF_ASC_NODE = 112.0842
ARG_OF_PERICENTER = 110.4418
MEAN_ANOMALY   = 249.6882

EPHEMERIS_TYPE = 0
CLASSIFICATION_TYPE = U
NORAD_CAT_ID   = 67607
ELEMENT_SET_NO = 999
REV_AT_EPOCH   = 394
BSTAR          = .83268E-3
MEAN_MOTION_DOT = .162558E-2
MEAN_MOTION_DDOT = 0

CCSDS_OMM_VERS = 2.0
CREATION_DATE  = 
ORIGINATOR     = 

OBJECT_NAME    = STARLINK-36411
OBJECT_ID      = 2026-018V
CENTER_NAME    = EARTH
REF_FRAME      = TEME
TIME_SYSTEM    = UTC
MEAN_ELEMENT_THEORY = SGP/SGP4

EPOCH          = 2026-02-16T07:22:53.354208
MEAN_MOTION    = 15.80844404
ECCENTRICITY   = .0001602
INCLINATION    = 97.2852
RA_OF_ASC_NODE = 112.0849
ARG_OF_PERICENTER = 68.4829
MEAN_ANOMALY   = 291.6610

EPHEMERIS_TYPE = 0
CLASSIFICATION_TYPE = U
NORAD_CAT_ID   = 67608
ELEMENT_SET_NO = 999
REV_AT_EPOCH   = 394
BSTAR          = .87609E-3
MEAN_MOTION_DOT = .171229E-2
MEAN_MOTION_DDOT = 0

CCSDS_OMM_VERS = 2.0
CREATION_DATE  = 
ORIGINATOR     = 

OBJECT_NAME    = STARLINK-36312
OBJECT_ID      = 2026-018W
CENTER_NAME    = EARTH
REF_FRAME      = TEME
TIME_SYSTEM    = UTC
MEAN_ELEMENT_THEORY = SGP/SGP4

EPOCH          = 2026-02-16T04:18:52.101216
MEAN_MOTION    = 15.80870295
ECCENTRICITY   = .00012953
INCLINATION    = 97.2850
RA_OF_ASC_NODE = 111.9525
ARG_OF_PERICENTER = 57.3300
MEAN_ANOMALY   = 302.8093

EPHEMERIS_TYPE = 0
CLASSIFICATION_TYPE = U
NORAD_CAT_ID   = 67609
ELEMENT_SET_NO = 999
REV_AT_EPOCH   = 392
BSTAR          = .13461389E-2
MEAN_MOTION_DOT = .266398E-2
MEAN_MOTION_DDOT = 0

CCSDS_OMM_VERS = 2.0
CREATION_DATE  = 
ORIGINATOR     = 

OBJECT_NAME    = STARLINK-36387
OBJECT_ID      = 2026-018X
CENTER_NAME    = EARTH
REF_FRAME      = TEME
TIME_SYSTEM    = UTC
MEAN_ELEMENT_THEORY = SGP/SGP4

EPOCH          = 2026-02-16T08:50:15.496224
MEAN_MOTION    = 15.80851210
ECCENTRICITY   = .0000938
INCLINATION    = 97.2853
RA_OF_ASC_NODE = 112.1549
ARG_OF_PERICENTER = 96.7877
MEAN_ANOMALY   = 263.3498

EPHEMERIS_TYPE = 0
CLASSIFICATION_TYPE = U
NORAD_CAT_ID   = 67610
ELEMENT_SET_NO = 999
REV_AT_EPOCH   = 395
BSTAR          = .82926E-3
MEAN_MOTION_DOT = .161942E-2
MEAN_MOTION_DDOT = 0

CCSDS_OMM_VERS = 2.0
CREATION_DATE  = 
ORIGINATOR     = 

OBJECT_NAME    = STARLINK-36636
OBJECT_ID      = 2026-018Y
CENTER_NAME    = EARTH
REF_FRAME      = TEME
TIME_SYSTEM    = UTC
MEAN_ELEMENT_THEORY = SGP/SGP4

EPOCH          = 2026-02-16T11:51:01.460160
MEAN_MOTION    = 15.80909314
ECCENTRICITY   = .0003092
INCLINATION    = 97.2740
RA_OF_ASC_NODE = 112.2831
ARG_OF_PERICENTER = 347.8665
MEAN_ANOMALY   = 12.2528

EPHEMERIS_TYPE = 0
CLASSIFICATION_TYPE = U
NORAD_CAT_ID   = 67611
ELEMENT_SET_NO = 999
REV_AT_EPOCH   = 397
BSTAR          = .15842E-2
MEAN_MOTION_DOT = .315924E-2
MEAN_MOTION_DDOT = 0

CCSDS_OMM_VERS = 2.0
CREATION_DATE  = 
ORIGINATOR     = 

OBJECT_NAME    = STARLINK-36407
OBJECT_ID      = 2026-018Z
CENTER_NAME    = EARTH
REF_FRAME      = TEME
TIME_SYSTEM    = UTC
MEAN_ELEMENT_THEORY = SGP/SGP4

EPOCH          = 2026-02-16T04:13:56.130240
MEAN_MOTION    = 15.80851342
ECCENTRICITY   = .00012625
INCLINATION    = 97.2853
RA_OF_ASC_NODE = 111.9569
ARG_OF_PERICENTER = 64.6234
MEAN_ANOMALY   = 295.5165

EPHEMERIS_TYPE = 0
CLASSIFICATION_TYPE = U
NORAD_CAT_ID   = 67612
ELEMENT_SET_NO = 999
REV_AT_EPOCH   = 397
BSTAR          = .74816953E-3
MEAN_MOTION_DOT = .145822E-2
MEAN_MOTION_DDOT = 0

CCSDS_OMM_VERS = 2.0
CREATION_DATE  = 
ORIGINATOR     = 

OBJECT_NAME    = STARLINK-36597
OBJECT_ID      = 2026-018AA
CENTER_NAME    = EARTH
REF_FRAME      = TEME
TIME_SYSTEM    = UTC
MEAN_ELEMENT_THEORY = SGP/SGP4

EPOCH          = 2026-02-16T08:45:55.395072
MEAN_MOTION    = 15.80848540
ECCENTRICITY   = .0001833
INCLINATION    = 97.2854
RA_OF_ASC_NODE = 112.1585
ARG_OF_PERICENTER = 119.8557
MEAN_ANOMALY   = 240.2894

EPHEMERIS_TYPE = 0
CLASSIFICATION_TYPE = U
NORAD_CAT_ID   = 67613
ELEMENT_SET_NO = 999
REV_AT_EPOCH   = 395
BSTAR          = .80986E-3
MEAN_MOTION_DOT = .158066E-2
MEAN_MOTION_DDOT = 0

CCSDS_OMM_VERS = 2.0
CREATION_DATE  = 
ORIGINATOR     = 

OBJECT_NAME    = NEONSAT-1A
OBJECT_ID      = 2026-019A
CENTER_NAME    = EARTH
REF_FRAME      = TEME
TIME_SYSTEM    = UTC
MEAN_ELEMENT_THEORY = SGP/SGP4

EPOCH          = 2026-02-16T08:13:10.954560
MEAN_MOTION    = 15.07609065
ECCENTRICITY   = .0012124
INCLINATION    = 97.4098
RA_OF_ASC_NODE = 171.6878
ARG_OF_PERICENTER = 244.9097
MEAN_ANOMALY   = 115.0874

EPHEMERIS_TYPE = 0
CLASSIFICATION_TYPE = U
NORAD_CAT_ID   = 67614
ELEMENT_SET_NO = 999
REV_AT_EPOCH   = 260
BSTAR          = .22472E-3
MEAN_MOTION_DOT = .3365E-4
MEAN_MOTION_DDOT = 0

