STARLINK-36626          
1 67603U 26018Q   26047.43740507  .00290105  00000+0  14584-2 0  9998
2 67603  97.2844 112.2155 0001912 101.2742 258.8741 15.80921397  3963
STARLINK-36605          
1 67604U 26018R   26047.50002314  .00040429  00000+0  27064-3 0  9994
2 67604  97.2844 112.2488 0001126  85.4659 190.2267 15.75189895  3932
STARLINK-36281          
1 67605U 26018S   26047.31272037  .00359589  00000+0  17933-2 0  9998
2 67605  97.2841 112.0784 0001641  97.6938 262.4517 15.80918501  3945
STARLINK-35843          
1 67606U 26018T   26047.50002314  .00070602  00000+0  47085-3 0  9997
2 67606  97.2841 112.2632 0001115  73.7023 233.9946 15.75163559  3999
STARLINK-36351          
1 67607U 26018U   26047.30892490  .00162558  00000+0  83268-3 0  9993
2 67607  97.2844 112.0842 0000292 110.4418 249.6882 15.80842440  3943
STARLINK-36411          
1 67608U 26018V   26047.30756197  .00171229  00000+0  87609-3 0  9995
2 67608  97.2852 112.0849 0001602  68.4829 291.6610 15.80844404  3942
STARLINK-36312          
1 67609U 26018W   26047.17976969  .00266398  00000+0  13461-2 0  9998
2 67609  97.2850 111.9525 0001295  57.3300 302.8093 15.80870295  3924
STARLINK-36387          
1 67610U 26018X   26047.36823491  .00161942  00000+0  82926-3 0  9994
2 67610  97.2853 112.1549 0000938  96.7877 263.3498 15.80851210  3956
STARLINK-36636          
1 67611U 26018Y   26047.49376690  .00315924  00000+0  15842-2 0  9996
2 67611  97.2740 112.2831 0003092 347.8665  12.2528 15.80909314  3972
STARLINK-36407          
1 67612U 26018Z   26047.17634410  .00145822  00000+0  74817-3 0  9995
2 67612  97.2853 111.9569 0001262  64.6234 295.5165 15.80851342  3975
STARLINK-36597          
1 67613U 26018AA  26047.36522448  .00158066  00000+0  80986-3 0  9992
2 67613  97.2854 112.1585 0001833 119.8557 240.2894 15.80848540  3953
NEONSAT-1A              
1 67614U 26019A   26047.34248790  .00003365  00000+0  22472-3 0  9994
2 67614  97.4098 171.6878 0012124 244.9097 115.0874 15.07609065  2609
